KUIPER-00016            
1 63732U 25088J   26023.80169773  .00010353  00000+0  13766-2 0  9994
2 63732  51.9013 310.0830 0010947 279.4904  80.4821 14.80159307 40682
KUIPER-00018            
1 63733U 25088K   26023.47744397 -.00003375  00000+0 -41327-3 0  9992
2 63733  51.9032 300.4865 0009423 307.1486  52.8615 14.79932690 40794
KUIPER-00019            
1 63734U 25088L   26023.74866357 -.00014635  00000+0 -18944-2 0  9993
2 63734  51.9023 297.8270 0002305   3.0171 357.0805 14.79939894 40850
KUIPER-00020            
1 63735U 25088M   26023.20451028 -.00014966  00000+0 -19398-2 0  9991
2 63735  51.9014 304.2188 0006811 301.5256  58.5041 14.79883572 40922
KUIPER-00021            
1 63736U 25088N   26023.74336590  .00009082  00000+0  12144-2 0  9990
2 63736  51.9015 302.8372 0005128 295.4305  64.6127 14.80082439 40826
KUIPER-00023            
1 63737U 25088P   26023.47212996  .00009631  00000+0  12907-2 0  9991
2 63737  51.9002 305.4993 0009677 312.9427  47.0723 14.79907197 41063
KUIPER-00024            
1 63738U 25088Q   26023.75576702  .00007987  00000+0  10753-2 0  9990
2 63738  51.9030 291.8006 0001127 101.2313 258.8776 14.79935259 41401
KUIPER-00025            
1 63739U 25088R   26023.74597284 -.00002725  00000+0 -32895-3 0  9997
2 63739  51.9023 300.3540 0000666  95.4123 264.6916 14.79885157 41146
