<?xml version="1.0" encoding="UTF-8"?>
<ndm xmlns:xsi="http://www.w3.org/2001/XMLSchema-instance" xsi:noNamespaceSchemaLocation="https://sanaregistry.org/r/ndmxml_unqualified/ndmxml-2.0.0-master-2.0.xsd">
<omm id="CCSDS_OMM_VERS" version="2.0">
<header><CREATION_DATE/><ORIGINATOR/></header><body><segment><metadata><OBJECT_NAME>KUIPER-00016</OBJECT_NAME><OBJECT_ID>2025-088J</OBJECT_ID><CENTER_NAME>EARTH</CENTER_NAME><REF_FRAME>TEME</REF_FRAME><TIME_SYSTEM>UTC</TIME_SYSTEM><MEAN_ELEMENT_THEORY>SGP4</MEAN_ELEMENT_THEORY></metadata><data><meanElements><EPOCH>2026-01-23T19:14:26.683872</EPOCH><MEAN_MOTION>14.80159307</MEAN_MOTION><ECCENTRICITY>.00109478</ECCENTRICITY><INCLINATION>51.9013</INCLINATION><RA_OF_ASC_NODE>310.0830</RA_OF_ASC_NODE><ARG_OF_PERICENTER>279.4904</ARG_OF_PERICENTER><MEAN_ANOMALY>80.4821</MEAN_ANOMALY></meanElements><tleParameters><EPHEMERIS_TYPE>0</EPHEMERIS_TYPE><CLASSIFICATION_TYPE>U</CLASSIFICATION_TYPE><NORAD_CAT_ID>63732</NORAD_CAT_ID><ELEMENT_SET_NO>999</ELEMENT_SET_NO><REV_AT_EPOCH>4068</REV_AT_EPOCH><BSTAR>.13766005E-2</BSTAR><MEAN_MOTION_DOT>.10353E-3</MEAN_MOTION_DOT><MEAN_MOTION_DDOT>0</MEAN_MOTION_DDOT></tleParameters></data></segment></body></omm>
<omm id="CCSDS_OMM_VERS" version="2.0">
<header><CREATION_DATE/><ORIGINATOR/></header><body><segment><metadata><OBJECT_NAME>KUIPER-00018</OBJECT_NAME><OBJECT_ID>2025-088K</OBJECT_ID><CENTER_NAME>EARTH</CENTER_NAME><REF_FRAME>TEME</REF_FRAME><TIME_SYSTEM>UTC</TIME_SYSTEM><MEAN_ELEMENT_THEORY>SGP4</MEAN_ELEMENT_THEORY></metadata><data><meanElements><EPOCH>2026-01-23T11:27:31.159008</EPOCH><MEAN_MOTION>14.79932690</MEAN_MOTION><ECCENTRICITY>.00094236</ECCENTRICITY><INCLINATION>51.9032</INCLINATION><RA_OF_ASC_NODE>300.4865</RA_OF_ASC_NODE><ARG_OF_PERICENTER>307.1486</ARG_OF_PERICENTER><MEAN_ANOMALY>52.8615</MEAN_ANOMALY></meanElements><tleParameters><EPHEMERIS_TYPE>0</EPHEMERIS_TYPE><CLASSIFICATION_TYPE>U</CLASSIFICATION_TYPE><NORAD_CAT_ID>63733</NORAD_CAT_ID><ELEMENT_SET_NO>999</ELEMENT_SET_NO><REV_AT_EPOCH>4079</REV_AT_EPOCH><BSTAR>-.41326767E-3</BSTAR><MEAN_MOTION_DOT>-.3375E-4</MEAN_MOTION_DOT><MEAN_MOTION_DDOT>0</MEAN_MOTION_DDOT></tleParameters></data></segment></body></omm>
<omm id="CCSDS_OMM_VERS" version="2.0">
<header><CREATION_DATE/><ORIGINATOR/></header><body><segment><metadata><OBJECT_NAME>KUIPER-00019</OBJECT_NAME><OBJECT_ID>2025-088L</OBJECT_ID><CENTER_NAME>EARTH</CENTER_NAME><REF_FRAME>TEME</REF_FRAME><TIME_SYSTEM>UTC</TIME_SYSTEM><MEAN_ELEMENT_THEORY>SGP4</MEAN_ELEMENT_THEORY></metadata><data><meanElements><EPOCH>2026-01-23T17:58:04.532448</EPOCH><MEAN_MOTION>14.79939894</MEAN_MOTION><ECCENTRICITY>.00023055</ECCENTRICITY><INCLINATION>51.9023</INCLINATION><RA_OF_ASC_NODE>297.8270</RA_OF_ASC_NODE><ARG_OF_PERICENTER>3.0171</ARG_OF_PERICENTER><MEAN_ANOMALY>357.0805</MEAN_ANOMALY></meanElements><tleParameters><EPHEMERIS_TYPE>0</EPHEMERIS_TYPE><CLASSIFICATION_TYPE>U</CLASSIFICATION_TYPE><NORAD_CAT_ID>63734</NORAD_CAT_ID><ELEMENT_SET_NO>999</ELEMENT_SET_NO><REV_AT_EPOCH>4085</REV_AT_EPOCH><BSTAR>-.18943881E-2</BSTAR><MEAN_MOTION_DOT>-.14635E-3</MEAN_MOTION_DOT><MEAN_MOTION_DDOT>0</MEAN_MOTION_DDOT></tleParameters></data></segment></body></omm>
<omm id="CCSDS_OMM_VERS" version="2.0">
<header><CREATION_DATE/><ORIGINATOR/></header><body><segment><metadata><OBJECT_NAME>KUIPER-00020</OBJECT_NAME><OBJECT_ID>2025-088M</OBJECT_ID><CENTER_NAME>EARTH</CENTER_NAME><REF_FRAME>TEME</REF_FRAME><TIME_SYSTEM>UTC</TIME_SYSTEM><MEAN_ELEMENT_THEORY>SGP4</MEAN_ELEMENT_THEORY></metadata><data><meanElements><EPOCH>2026-01-23T04:54:29.688192</EPOCH><MEAN_MOTION>14.79883572</MEAN_MOTION><ECCENTRICITY>.0006811</ECCENTRICITY><INCLINATION>51.9014</INCLINATION><RA_OF_ASC_NODE>304.2188</RA_OF_ASC_NODE><ARG_OF_PERICENTER>301.5256</ARG_OF_PERICENTER><MEAN_ANOMALY>58.5041</MEAN_ANOMALY></meanElements><tleParameters><EPHEMERIS_TYPE>0</EPHEMERIS_TYPE><CLASSIFICATION_TYPE>U</CLASSIFICATION_TYPE><NORAD_CAT_ID>63735</NORAD_CAT_ID><ELEMENT_SET_NO>999</ELEMENT_SET_NO><REV_AT_EPOCH>4092</REV_AT_EPOCH><BSTAR>-.1939787E-2</BSTAR><MEAN_MOTION_DOT>-.14966E-3</MEAN_MOTION_DOT><MEAN_MOTION_DDOT>0</MEAN_MOTION_DDOT></tleParameters></data></segment></body></omm>
<omm id="CCSDS_OMM_VERS" version="2.0">
<header><CREATION_DATE/><ORIGINATOR/></header><body><segment><metadata><OBJECT_NAME>KUIPER-00021</OBJECT_NAME><OBJECT_ID>2025-088N</OBJECT_ID><CENTER_NAME>EARTH</CENTER_NAME><REF_FRAME>TEME</REF_FRAME><TIME_SYSTEM>UTC</TIME_SYSTEM><MEAN_ELEMENT_THEORY>SGP4</MEAN_ELEMENT_THEORY></metadata><data><meanElements><EPOCH>2026-01-23T17:50:26.813760</EPOCH><MEAN_MOTION>14.80082439</MEAN_MOTION><ECCENTRICITY>.00051285</ECCENTRICITY><INCLINATION>51.9015</INCLINATION><RA_OF_ASC_NODE>302.8372</RA_OF_ASC_NODE><ARG_OF_PERICENTER>295.4305</ARG_OF_PERICENTER><MEAN_ANOMALY>64.6127</MEAN_ANOMALY></meanElements><tleParameters><EPHEMERIS_TYPE>0</EPHEMERIS_TYPE><CLASSIFICATION_TYPE>U</CLASSIFICATION_TYPE><NORAD_CAT_ID>63736</NORAD_CAT_ID><ELEMENT_SET_NO>999</ELEMENT_SET_NO><REV_AT_EPOCH>4082</REV_AT_EPOCH><BSTAR>.12143643E-2</BSTAR><MEAN_MOTION_DOT>.9082E-4</MEAN_MOTION_DOT><MEAN_MOTION_DDOT>0</MEAN_MOTION_DDOT></tleParameters></data></segment></body></omm>
<omm id="CCSDS_OMM_VERS" version="2.0">
<header><CREATION_DATE/><ORIGINATOR/></header><body><segment><metadata><OBJECT_NAME>KUIPER-00023</OBJECT_NAME><OBJECT_ID>2025-088P</OBJECT_ID><CENTER_NAME>EARTH</CENTER_NAME><REF_FRAME>TEME</REF_FRAME><TIME_SYSTEM>UTC</TIME_SYSTEM><MEAN_ELEMENT_THEORY>SGP4</MEAN_ELEMENT_THEORY></metadata><data><meanElements><EPOCH>2026-01-23T11:19:52.028544</EPOCH><MEAN_MOTION>14.79907197</MEAN_MOTION><ECCENTRICITY>.00096771</ECCENTRICITY><INCLINATION>51.9002</INCLINATION><RA_OF_ASC_NODE>305.4993</RA_OF_ASC_NODE><ARG_OF_PERICENTER>312.9427</ARG_OF_PERICENTER><MEAN_ANOMALY>47.0723</MEAN_ANOMALY></meanElements><tleParameters><EPHEMERIS_TYPE>0</EPHEMERIS_TYPE><CLASSIFICATION_TYPE>U</CLASSIFICATION_TYPE><NORAD_CAT_ID>63737</NORAD_CAT_ID><ELEMENT_SET_NO>999</ELEMENT_SET_NO><REV_AT_EPOCH>4106</REV_AT_EPOCH><BSTAR>.12906856E-2</BSTAR><MEAN_MOTION_DOT>.9631E-4</MEAN_MOTION_DOT><MEAN_MOTION_DDOT>0</MEAN_MOTION_DDOT></tleParameters></data></segment></body></omm>
<omm id="CCSDS_OMM_VERS" version="2.0">
<header><CREATION_DATE/><ORIGINATOR/></header><body><segment><metadata><OBJECT_NAME>KUIPER-00024</OBJECT_NAME><OBJECT_ID>2025-088Q</OBJECT_ID><CENTER_NAME>EARTH</CENTER_NAME><REF_FRAME>TEME</REF_FRAME><TIME_SYSTEM>UTC</TIME_SYSTEM><MEAN_ELEMENT_THEORY>SGP4</MEAN_ELEMENT_THEORY></metadata><data><meanElements><EPOCH>2026-01-23T18:08:18.270528</EPOCH><MEAN_MOTION>14.79935259</MEAN_MOTION><ECCENTRICITY>.00011276</ECCENTRICITY><INCLINATION>51.9030</INCLINATION><RA_OF_ASC_NODE>291.8006</RA_OF_ASC_NODE><ARG_OF_PERICENTER>101.2313</ARG_OF_PERICENTER><MEAN_ANOMALY>258.8776</MEAN_ANOMALY></meanElements><tleParameters><EPHEMERIS_TYPE>0</EPHEMERIS_TYPE><CLASSIFICATION_TYPE>U</CLASSIFICATION_TYPE><NORAD_CAT_ID>63738</NORAD_CAT_ID><ELEMENT_SET_NO>999</ELEMENT_SET_NO><REV_AT_EPOCH>4140</REV_AT_EPOCH><BSTAR>.10753436E-2</BSTAR><MEAN_MOTION_DOT>.7987E-4</MEAN_MOTION_DOT><MEAN_MOTION_DDOT>0</MEAN_MOTION_DDOT></tleParameters></data></segment></body></omm>
<omm id="CCSDS_OMM_VERS" version="2.0">
<header><CREATION_DATE/><ORIGINATOR/></header><body><segment><metadata><OBJECT_NAME>KUIPER-00025</OBJECT_NAME><OBJECT_ID>2025-088R</OBJECT_ID><CENTER_NAME>EARTH</CENTER_NAME><REF_FRAME>TEME</REF_FRAME><TIME_SYSTEM>UTC</TIME_SYSTEM><MEAN_ELEMENT_THEORY>SGP4</MEAN_ELEMENT_THEORY></metadata><data><meanElements><EPOCH>2026-01-23T17:54:12.053376</EPOCH><MEAN_MOTION>14.79885157</MEAN_MOTION><ECCENTRICITY>.0000666</ECCENTRICITY><INCLINATION>51.9023</INCLINATION><RA_OF_ASC_NODE>300.3540</RA_OF_ASC_NODE><ARG_OF_PERICENTER>95.4123</ARG_OF_PERICENTER><MEAN_ANOMALY>264.6916</MEAN_ANOMALY></meanElements><tleParameters><EPHEMERIS_TYPE>0</EPHEMERIS_TYPE><CLASSIFICATION_TYPE>U</CLASSIFICATION_TYPE><NORAD_CAT_ID>63739</NORAD_CAT_ID><ELEMENT_SET_NO>999</ELEMENT_SET_NO><REV_AT_EPOCH>4114</REV_AT_EPOCH><BSTAR>-.3289532E-3</BSTAR><MEAN_MOTION_DOT>-.2725E-4</MEAN_MOTION_DOT><MEAN_MOTION_DDOT>0</MEAN_MOTION_DDOT></tleParameters></data></segment></body></omm>

</ndm>
